[{"OBJECT_NAME":"STARLINK-32642","OBJECT_ID":"2024-229V","EPOCH":"2026-03-09T13:21:28.450656","MEAN_MOTION":15.27582698,"ECCENTRICITY":0.00016186,"INCLINATION":42.9996,"RA_OF_ASC_NODE":271.2385,"ARG_OF_PERICENTER":234.8632,"MEAN_ANOMALY":125.2068,"EPHEMERIS_TYPE":0,"CLASSIFICATION_TYPE":"U","NORAD_CAT_ID":62211,"ELEMENT_SET_NO":999,"REV_AT_EPOCH":7054,"BSTAR":0.0010623194,"MEAN_MOTION_DOT":0.00029089,"MEAN_MOTION_DDOT":0},{"OBJECT_NAME":"COSMOS 252 DEB","OBJECT_ID":"1968-097BM","EPOCH":"2026-03-09T19:23:01.251168","MEAN_MOTION":14.84266968,"ECCENTRICITY":0.01906429,"INCLINATION":62.1994,"RA_OF_ASC_NODE":322.7421,"ARG_OF_PERICENTER":219.9576,"MEAN_ANOMALY":138.735,"EPHEMERIS_TYPE":0,"CLASSIFICATION_TYPE":"U","NORAD_CAT_ID":3900,"ELEMENT_SET_NO":999,"REV_AT_EPOCH":87477,"BSTAR":0.00094776544,"MEAN_MOTION_DOT":0.00010849,"MEAN_MOTION_DDOT":0}]
